[{"OBJECT_NAME":"ONEWEB-0284","OBJECT_ID":"2021-060AM","EPOCH":"2026-03-09T21:40:18.486336","MEAN_MOTION":13.16593122,"ECCENTRICITY":0.00019699,"INCLINATION":87.9005,"RA_OF_ASC_NODE":248.5198,"ARG_OF_PERICENTER":90.6784,"MEAN_ANOMALY":269.4572,"EPHEMERIS_TYPE":0,"CLASSIFICATION_TYPE":"U","NORAD_CAT_ID":49002,"ELEMENT_SET_NO":999,"REV_AT_EPOCH":22653,"BSTAR":-0.00029491813,"MEAN_MOTION_DOT":-1.0e-6,"MEAN_MOTION_DDOT":0},{"OBJECT_NAME":"STTW-T1","OBJECT_ID":"1984-008A","EPOCH":"2026-03-09T10:28:05.666880","MEAN_MOTION":9.04119973,"ECCENTRICITY":0.29688887,"INCLINATION":36.1124,"RA_OF_ASC_NODE":220.3346,"ARG_OF_PERICENTER":87.4014,"MEAN_ANOMALY":305.8001,"EPHEMERIS_TYPE":0,"CLASSIFICATION_TYPE":"U","NORAD_CAT_ID":14670,"ELEMENT_SET_NO":999,"REV_AT_EPOCH":37507,"BSTAR":0.0004629166,"MEAN_MOTION_DOT":9.26e-6,"MEAN_MOTION_DDOT":0}]
